[{"OBJECT_NAME":"STARLINK-4556","OBJECT_ID":"2022-101BD","EPOCH":"2026-03-09T23:25:58.497600","MEAN_MOTION":15.0884579,"ECCENTRICITY":0.00012969,"INCLINATION":53.2179,"RA_OF_ASC_NODE":52.4671,"ARG_OF_PERICENTER":90.34,"MEAN_ANOMALY":269.774,"EPHEMERIS_TYPE":0,"CLASSIFICATION_TYPE":"U","NORAD_CAT_ID":53578,"ELEMENT_SET_NO":999,"REV_AT_EPOCH":19649,"BSTAR":0.0001008259,"MEAN_MOTION_DOT":1.317e-5,"MEAN_MOTION_DDOT":0},{"OBJECT_NAME":"OKEAN-3","OBJECT_ID":"1991-039A","EPOCH":"2026-03-09T19:29:17.530944","MEAN_MOTION":15.0480588,"ECCENTRICITY":0.00139411,"INCLINATION":82.519,"RA_OF_ASC_NODE":336.7249,"ARG_OF_PERICENTER":337.9296,"MEAN_ANOMALY":22.1329,"EPHEMERIS_TYPE":0,"CLASSIFICATION_TYPE":"U","NORAD_CAT_ID":21397,"ELEMENT_SET_NO":999,"REV_AT_EPOCH":86505,"BSTAR":0.00031884915,"MEAN_MOTION_DOT":4.536e-5,"MEAN_MOTION_DDOT":0}]
